HORS 3 (RS81S)          
1 61753U 24199U   26064.70380076  .00037863  00000+0  72199-3 0  9993
2 61753  97.3132 298.9250 0005983 310.5582  49.5147 15.48055519121516
HORS 4 (RS82S)          
1 61754U 24199V   26064.71424404  .00045444  00000+0  78606-3 0  9992
2 61754  97.3106 299.6172 0005610 307.4841  52.5901 15.50804545121560
HORIZON (RS59S)         
1 61757U 24199Y   26064.73002154  .00133835  00000+0  11468-2 0  9995
2 61757  97.3075 303.3604 0003066 276.5949  83.4964 15.68994978121807
ARCTICSAT 1 (RS74S)     
1 61762U 24199AD  26064.73196713  .00102216  00000+0  10404-2 0  9994
2 61762  97.3094 302.9095 0003484 274.8918  85.1944 15.64807122121777
SIT-2086                
1 61764U 24199AF  26064.71296213  .00027666  00000+0  54059-3 0  9990
2 61764  97.3126 299.6697 0006174 290.0194  70.0391 15.47410728118408
RUZAEVKA 390 (RS44S)    
1 61766U 24199AH  26064.56015490  .01278622  99584-3  17120-2 0  9998
2 61766  97.2825 306.6088 0002291 166.8560 193.2782 16.06831134118867
HYPERVIEW 1G (RS66S)    
1 61772U 24199AP  26064.70942038  .00069617  00000+0  94618-3 0  9998
2 61772  97.3091 300.6794 0006750 303.5592  56.5019 15.57348348118484
ALTAIR (RS65S)          
1 61779U 24199AW  26064.72494355  .00013362  00000+0  39595-3 0  9990
2 61779  97.3184 294.8140 0012426 324.0122  36.0284 15.34899793121231
ASRTU-1 (AO-123)        
1 61781U 24199AY  26064.70217492  .00012117  00000+0  36994-3 0  9993
2 61781  97.3157 294.3255 0013177 325.9417  34.0979 15.33967892118057
TUSUR GO (RS78S)        
1 61782U 24199AZ  26064.74426013  .00152561  00000+0  12802-2 0  9998
2 61782  97.3028 302.3848 0003888 298.4113  61.6757 15.69446715118604
SAMSAT-IONOSPHERE (RS7*)
1 61784U 24199BB  26064.73093703  .00042816  00000+0  78413-3 0  9997
2 61784  97.3118 298.7392 0008978 311.0439  49.0036 15.49165124121509
RTU MIREA 1 (RS51S)     
1 61785U 24199BC  26064.73370288  .00049488  00000+0  84759-3 0  9996
2 61785  97.3118 299.1753 0008697 306.6993  53.3459 15.51040120118389
TEVEL2-4                
1 63213U 25052D   26064.64145090  .00024515  00000+0  82623-3 0  9996
2 63213  97.4027 321.0815 0004626 102.7611 257.4147 15.30720272 54257
TEVEL2-5                
1 63214U 25052E   26064.65208928  .00024283  00000+0  82144-3 0  9998
2 63214  97.4025 321.0657 0004565 103.0500 257.1251 15.30601904 54256
TEVEL2-6                
1 63215U 25052F   26064.66180624  .00024704  00000+0  83667-3 0  9991
2 63215  97.4026 321.0612 0004641 104.6430 255.5326 15.30560124 54256
TEVEL2-1                
1 63217U 25052H   26064.65895451  .00024240  00000+0  83160-3 0  9996
2 63217  97.4002 320.7947 0004541 112.6960 247.4761 15.30146387 54248
