[{"OBJECT_NAME":"HORS 3 (RS81S)","OBJECT_ID":"2024-199U","EPOCH":"2026-03-05T16:53:28.385664","MEAN_MOTION":15.48055519,"ECCENTRICITY":0.0005983,"INCLINATION":97.3132,"RA_OF_ASC_NODE":298.925,"ARG_OF_PERICENTER":310.5582,"MEAN_ANOMALY":49.5147,"EPHEMERIS_TYPE":0,"CLASSIFICATION_TYPE":"U","NORAD_CAT_ID":61753,"ELEMENT_SET_NO":999,"REV_AT_EPOCH":12151,"BSTAR":0.00072199,"MEAN_MOTION_DOT":0.00037863,"MEAN_MOTION_DDOT":0},{"OBJECT_NAME":"HORS 4 (RS82S)","OBJECT_ID":"2024-199V","EPOCH":"2026-03-05T17:08:30.685056","MEAN_MOTION":15.50804545,"ECCENTRICITY":0.000561,"INCLINATION":97.3106,"RA_OF_ASC_NODE":299.6172,"ARG_OF_PERICENTER":307.4841,"MEAN_ANOMALY":52.5901,"EPHEMERIS_TYPE":0,"CLASSIFICATION_TYPE":"U","NORAD_CAT_ID":61754,"ELEMENT_SET_NO":999,"REV_AT_EPOCH":12156,"BSTAR":0.00078606,"MEAN_MOTION_DOT":0.00045444,"MEAN_MOTION_DDOT":0},{"OBJECT_NAME":"HORIZON (RS59S)","OBJECT_ID":"2024-199Y","EPOCH":"2026-03-05T17:31:13.861056","MEAN_MOTION":15.68994978,"ECCENTRICITY":0.0003066,"INCLINATION":97.3075,"RA_OF_ASC_NODE":303.3604,"ARG_OF_PERICENTER":276.5949,"MEAN_ANOMALY":83.4964,"EPHEMERIS_TYPE":0,"CLASSIFICATION_TYPE":"U","NORAD_CAT_ID":61757,"ELEMENT_SET_NO":999,"REV_AT_EPOCH":12180,"BSTAR":0.0011468,"MEAN_MOTION_DOT":0.00133835,"MEAN_MOTION_DDOT":0},{"OBJECT_NAME":"ARCTICSAT 1 (RS74S)","OBJECT_ID":"2024-199AD","EPOCH":"2026-03-05T17:34:01.960032","MEAN_MOTION":15.64807122,"ECCENTRICITY":0.0003484,"INCLINATION":97.3094,"RA_OF_ASC_NODE":302.9095,"ARG_OF_PERICENTER":274.8918,"MEAN_ANOMALY":85.1944,"EPHEMERIS_TYPE":0,"CLASSIFICATION_TYPE":"U","NORAD_CAT_ID":61762,"ELEMENT_SET_NO":999,"REV_AT_EPOCH":12177,"BSTAR":0.0010404,"MEAN_MOTION_DOT":0.00102216,"MEAN_MOTION_DDOT":0},{"OBJECT_NAME":"SIT-2086","OBJECT_ID":"2024-199AF","EPOCH":"2026-03-05T17:06:39.928032","MEAN_MOTION":15.47410728,"ECCENTRICITY":0.0006174,"INCLINATION":97.3126,"RA_OF_ASC_NODE":299.6697,"ARG_OF_PERICENTER":290.0194,"MEAN_ANOMALY":70.0391,"EPHEMERIS_TYPE":0,"CLASSIFICATION_TYPE":"U","NORAD_CAT_ID":61764,"ELEMENT_SET_NO":999,"REV_AT_EPOCH":11840,"BSTAR":0.00054059,"MEAN_MOTION_DOT":0.00027666,"MEAN_MOTION_DDOT":0},{"OBJECT_NAME":"RUZAEVKA 390 (RS44S)","OBJECT_ID":"2024-199AH","EPOCH":"2026-03-05T13:26:37.383360","MEAN_MOTION":16.06831134,"ECCENTRICITY":0.0002291,"INCLINATION":97.2825,"RA_OF_ASC_NODE":306.6088,"ARG_OF_PERICENTER":166.856,"MEAN_ANOMALY":193.2782,"EPHEMERIS_TYPE":0,"CLASSIFICATION_TYPE":"U","NORAD_CAT_ID":61766,"ELEMENT_SET_NO":999,"REV_AT_EPOCH":11886,"BSTAR":0.001712,"MEAN_MOTION_DOT":0.01278622,"MEAN_MOTION_DDOT":0.00099584},{"OBJECT_NAME":"HYPERVIEW 1G (RS66S)","OBJECT_ID":"2024-199AP","EPOCH":"2026-03-05T17:01:33.920832","MEAN_MOTION":15.57348348,"ECCENTRICITY":0.000675,"INCLINATION":97.3091,"RA_OF_ASC_NODE":300.6794,"ARG_OF_PERICENTER":303.5592,"MEAN_ANOMALY":56.5019,"EPHEMERIS_TYPE":0,"CLASSIFICATION_TYPE":"U","NORAD_CAT_ID":61772,"ELEMENT_SET_NO":999,"REV_AT_EPOCH":11848,"BSTAR":0.00094618,"MEAN_MOTION_DOT":0.00069617,"MEAN_MOTION_DDOT":0},{"OBJECT_NAME":"ALTAIR (RS65S)","OBJECT_ID":"2024-199AW","EPOCH":"2026-03-05T17:23:55.122720","MEAN_MOTION":15.34899793,"ECCENTRICITY":0.0012426,"INCLINATION":97.3184,"RA_OF_ASC_NODE":294.814,"ARG_OF_PERICENTER":324.0122,"MEAN_ANOMALY":36.0284,"EPHEMERIS_TYPE":0,"CLASSIFICATION_TYPE":"U","NORAD_CAT_ID":61779,"ELEMENT_SET_NO":999,"REV_AT_EPOCH":12123,"BSTAR":0.00039595,"MEAN_MOTION_DOT":0.00013362,"MEAN_MOTION_DDOT":0},{"OBJECT_NAME":"ASRTU-1 (AO-123)","OBJECT_ID":"2024-199AY","EPOCH":"2026-03-05T16:51:07.913088","MEAN_MOTION":15.33967892,"ECCENTRICITY":0.0013177,"INCLINATION":97.3157,"RA_OF_ASC_NODE":294.3255,"ARG_OF_PERICENTER":325.9417,"MEAN_ANOMALY":34.0979,"EPHEMERIS_TYPE":0,"CLASSIFICATION_TYPE":"U","NORAD_CAT_ID":61781,"ELEMENT_SET_NO":999,"REV_AT_EPOCH":11805,"BSTAR":0.00036994,"MEAN_MOTION_DOT":0.00012117,"MEAN_MOTION_DDOT":0},{"OBJECT_NAME":"TUSUR GO (RS78S)","OBJECT_ID":"2024-199AZ","EPOCH":"2026-03-05T17:51:44.075232","MEAN_MOTION":15.69446715,"ECCENTRICITY":0.0003888,"INCLINATION":97.3028,"RA_OF_ASC_NODE":302.3848,"ARG_OF_PERICENTER":298.4113,"MEAN_ANOMALY":61.6757,"EPHEMERIS_TYPE":0,"CLASSIFICATION_TYPE":"U","NORAD_CAT_ID":61782,"ELEMENT_SET_NO":999,"REV_AT_EPOCH":11860,"BSTAR":0.0012802,"MEAN_MOTION_DOT":0.00152561,"MEAN_MOTION_DDOT":0},{"OBJECT_NAME":"SAMSAT-IONOSPHERE (RS75S)","OBJECT_ID":"2024-199BB","EPOCH":"2026-03-05T17:32:32.959392","MEAN_MOTION":15.49165124,"ECCENTRICITY":0.0008978,"INCLINATION":97.3118,"RA_OF_ASC_NODE":298.7392,"ARG_OF_PERICENTER":311.0439,"MEAN_ANOMALY":49.0036,"EPHEMERIS_TYPE":0,"CLASSIFICATION_TYPE":"U","NORAD_CAT_ID":61784,"ELEMENT_SET_NO":999,"REV_AT_EPOCH":12150,"BSTAR":0.00078413,"MEAN_MOTION_DOT":0.00042816,"MEAN_MOTION_DDOT":0},{"OBJECT_NAME":"RTU MIREA 1 (RS51S)","OBJECT_ID":"2024-199BC","EPOCH":"2026-03-05T17:36:31.928832","MEAN_MOTION":15.5104012,"ECCENTRICITY":0.0008697,"INCLINATION":97.3118,"RA_OF_ASC_NODE":299.1753,"ARG_OF_PERICENTER":306.6993,"MEAN_ANOMALY":53.3459,"EPHEMERIS_TYPE":0,"CLASSIFICATION_TYPE":"U","NORAD_CAT_ID":61785,"ELEMENT_SET_NO":999,"REV_AT_EPOCH":11838,"BSTAR":0.00084759,"MEAN_MOTION_DOT":0.00049488,"MEAN_MOTION_DDOT":0},{"OBJECT_NAME":"TEVEL2-4","OBJECT_ID":"2025-052D","EPOCH":"2026-03-05T15:23:41.357760","MEAN_MOTION":15.30720272,"ECCENTRICITY":0.0004626,"INCLINATION":97.4027,"RA_OF_ASC_NODE":321.0815,"ARG_OF_PERICENTER":102.7611,"MEAN_ANOMALY":257.4147,"EPHEMERIS_TYPE":0,"CLASSIFICATION_TYPE":"U","NORAD_CAT_ID":63213,"ELEMENT_SET_NO":999,"REV_AT_EPOCH":5425,"BSTAR":0.00082623,"MEAN_MOTION_DOT":0.00024515,"MEAN_MOTION_DDOT":0},{"OBJECT_NAME":"TEVEL2-5","OBJECT_ID":"2025-052E","EPOCH":"2026-03-05T15:39:00.513792","MEAN_MOTION":15.30601904,"ECCENTRICITY":0.0004565,"INCLINATION":97.4025,"RA_OF_ASC_NODE":321.0657,"ARG_OF_PERICENTER":103.05,"MEAN_ANOMALY":257.1251,"EPHEMERIS_TYPE":0,"CLASSIFICATION_TYPE":"U","NORAD_CAT_ID":63214,"ELEMENT_SET_NO":999,"REV_AT_EPOCH":5425,"BSTAR":0.00082144,"MEAN_MOTION_DOT":0.00024283,"MEAN_MOTION_DDOT":0},{"OBJECT_NAME":"TEVEL2-6","OBJECT_ID":"2025-052F","EPOCH":"2026-03-05T15:53:00.059136","MEAN_MOTION":15.30560124,"ECCENTRICITY":0.0004641,"INCLINATION":97.4026,"RA_OF_ASC_NODE":321.0612,"ARG_OF_PERICENTER":104.643,"MEAN_ANOMALY":255.5326,"EPHEMERIS_TYPE":0,"CLASSIFICATION_TYPE":"U","NORAD_CAT_ID":63215,"ELEMENT_SET_NO":999,"REV_AT_EPOCH":5425,"BSTAR":0.00083667,"MEAN_MOTION_DOT":0.00024704,"MEAN_MOTION_DDOT":0},{"OBJECT_NAME":"TEVEL2-1","OBJECT_ID":"2025-052H","EPOCH":"2026-03-05T15:48:53.669664","MEAN_MOTION":15.30146387,"ECCENTRICITY":0.0004541,"INCLINATION":97.4002,"RA_OF_ASC_NODE":320.7947,"ARG_OF_PERICENTER":112.696,"MEAN_ANOMALY":247.4761,"EPHEMERIS_TYPE":0,"CLASSIFICATION_TYPE":"U","NORAD_CAT_ID":63217,"ELEMENT_SET_NO":999,"REV_AT_EPOCH":5424,"BSTAR":0.0008316,"MEAN_MOTION_DOT":0.0002424,"MEAN_MOTION_DDOT":0}]
